GSAT0101 (GALILEO-PFM)  
1 37846U 11060A   25228.41073625 -.00000097  00000+0  00000+0 0  9998
2 37846  57.0825 350.0294 0001184  68.2332 291.7871  1.70475606 85923
GSAT0102 (GALILEO-FM2)  
1 37847U 11060B   25229.50511025 -.00000102  00000+0  00000+0 0  9998
2 37847  57.0829 350.0001 0001626 338.6718  18.3750  1.70475791 85943
GSAT0103 (GALILEO-FM3)  
1 38857U 12055A   25225.51780561  .00000002  00000+0  00000+0 0  9993
2 38857  55.6168 109.9966 0003313 296.1634  63.8841  1.70473506 79767
GSAT0201 (GALILEO 5)    
1 40128U 14050A   25228.88938916 -.00000025  00000+0  00000+0 0  9992
2 40128  49.2061 285.8600 1637672 167.7567 196.8039  1.85519542 72677
GSAT0202 (GALILEO 6)    
1 40129U 14050B   25226.99013734 -.00000026  00000+0  00000+0 0  9996
2 40129  49.2235 285.0197 1637643 168.4571 195.8492  1.85520076 74808
GSAT0203 (GALILEO 7)    
1 40544U 15017A   25228.77582423 -.00000099  00000+0  00000+0 0  9995
2 40544  56.8765 349.8957 0003639 244.2026 115.7670  1.70476133 64012
GSAT0204 (GALILEO 8)    
1 40545U 15017B   25229.03094675 -.00000100  00000+0  00000+0 0  9996
2 40545  56.8825 349.9060 0003934 229.1621 130.8104  1.70475583 27069
GSAT0205 (GALILEO 9)    
1 40889U 15045A   25228.21235005  .00000072  00000+0  00000+0 0  9998
2 40889  55.0474 230.0278 0003140  11.0897 348.9332  1.70473325 61812
GSAT0206 (GALILEO 10)   
1 40890U 15045B   25229.01960337  .00000071  00000+0  00000+0 0  9991
2 40890  55.0473 230.0007 0001799 328.7667  31.2398  1.70473288 61850
GSAT0209 (GALILEO 12)   
1 41174U 15079A   25225.66901952  .00000001  00000+0  00000+0 0  9992
2 41174  55.6370 109.7054 0003854 354.8097   5.2675  1.70473697 60114
GSAT0208 (GALILEO 11)   
1 41175U 15079B   25228.23540946 -.00000018  00000+0  00000+0 0  9990
2 41175  55.6372 109.6322 0003221   4.0355 356.0367  1.70473469 59999
GSAT0211 (GALILEO 14)   
1 41549U 16030A   25228.94531222  .00000071  00000+0  00000+0 0  9996
2 41549  55.1966 230.0602 0003290 314.1693  45.8210  1.70473362 57488
GSAT0210 (GALILEO 13)   
1 41550U 16030B   25228.61645415  .00000072  00000+0  00000+0 0  9993
2 41550  55.1958 230.0674 0004446 242.8146 117.1570  1.70473620 57472
GSAT0207 (GALILEO 15)   
1 41859U 16069A   25228.30869912 -.00000019  00000+0  00000+0 0  9995
2 41859  55.3068 109.5308 0003671 332.4176  27.6322  1.70473577 54209
GSAT0212 (GALILEO 16)   
1 41860U 16069B   25226.98935441 -.00000010  00000+0  00000+0 0  9991
2 41860  55.3035 109.5630 0003648  16.5522 343.5344  1.70473796 54434
GSAT0213 (GALILEO 17)   
1 41861U 16069C   25228.53030091 -.00000021  00000+0  00000+0 0  9994
2 41861  55.3067 109.5277 0002993 308.9865  51.0554  1.70474207 54327
GSAT0214 (GALILEO 18)   
1 41862U 16069D   25229.26269993 -.00000024  00000+0  00000+0 0  9994
2 41862  55.3060 109.5004 0002213 323.3604  36.6919  1.70473860 54469
GSAT0215 (GALILEO 19)   
1 43055U 17079A   25226.81942072  .00000072  00000+0  00000+0 0  9998
2 43055  55.1749 229.9347 0003597 264.3861  95.5856  1.70474110 47767
GSAT0216 (GALILEO 20)   
1 43056U 17079B   25228.28396081  .00000073  00000+0  00000+0 0  9996
2 43056  55.1746 229.8943 0004870 274.3134  85.6469  1.70474221 47803
GSAT0217 (GALILEO 21)   
1 43057U 17079C   25229.09119775  .00000071  00000+0  00000+0 0  9998
2 43057  55.1726 229.8702 0004102 286.5829  73.3892  1.70474152 47806
GSAT0218 (GALILEO 22)   
1 43058U 17079D   25226.96493349  .00000072  00000+0  00000+0 0  9995
2 43058  55.1735 229.9263 0005360 271.1421  88.8094  1.70474152 47765
GSAT0221 (GALILEO 25)   
1 43564U 18060A   25227.45423414 -.00000092  00000+0  00000+0 0  9992
2 43564  57.2573 350.0390 0003359 267.0098  92.9610  1.70476036 43957
GSAT0222 (GALILEO 26)   
1 43565U 18060B   25229.43314570 -.00000102  00000+0  00000+0 0  9997
2 43565  57.2605 349.9886 0003696 229.9870 129.9861  1.70475840 44031
GSAT0219 (GALILEO 23)   
1 43566U 18060C   25226.72151519 -.00000089  00000+0  00000+0 0  9993
2 43566  57.2606 350.0632 0002413 271.5627  88.4195  1.70475994 43964
GSAT0220 (GALILEO 24)   
1 43567U 18060D   25228.11554333 -.00000095  00000+0  00000+0 0  9997
2 43567  57.2601 350.0259 0003050 263.6652  96.3083  1.70475673 43961
GSAT0223 (GALILEO 27)   
1 49809U 21116A   25227.97375780 -.00000095  00000+0  00000+0 0  9998
2 49809  57.2498 349.9212 0003234 201.0835 162.5513  1.70475896 22989
GSAT0224 (GALILEO 28)   
1 49810U 21116B   25228.37317478 -.00000097  00000+0  00000+0 0  9997
2 49810  57.2501 349.9091 0002636 194.3964 166.9377  1.70475961 23017
GSAT0225 (GALILEO 29)   
1 59598U 24079A   25227.50878113 -.00000014  00000+0  00000+0 0  9993
2 59598  54.9244 109.6306 0000775 142.7757  40.2755  1.70473857  8095
GSAT0227 (GALILEO 30)   
1 59600U 24079C   25229.15378804 -.00000025  00000+0  00000+0 0  9994
2 59600  54.9211 109.5841 0003056  89.9680 270.1341  1.70473882  8181
GSAT0232 (GALILEO 32)   
1 61182U 24167A   25228.49438604  .00000073  00000+0  00000+0 0  9993
2 61182  55.2850 229.6715 0005273 231.1329 279.2913  1.70473521  5687
GSAT0226 (GALILEO 31)   
1 61183U 24167B   25228.91418236  .00000072  00000+0  00000+0 0  9999
2 61183  55.2836 229.6656 0002996 229.5144 291.1606  1.70473573  5668
